NORAD_CAT_ID,OBJECT_NAME,OBJECT_TYPE,EPOCH,MEAN_MOTION,ECCENTRICITY,INCLINATION,RA_OF_ASC_NODE,ARG_OF_PERICENTER,MEAN_ANOMALY,BSTAR,MEAN_MOTION_DOT,MEAN_MOTION_DDOT,TLE_LINE0,TLE_LINE1,TLE_LINE2,SEMIMAJOR_AXIS,PERIOD,APOGEE,PERIGEE,DECAYED
52483.0,STARLINK-3875,PAYLOAD,2023-03-22 13:26:06,15.08841435,0.0001343,53.2147,231.4779,77.72,282.3942,0.00010834,1.437e-05,0.0,0 STARLINK-3875,1 52483U 22049AJ  23081.55979441  .00001437  00000-0  10834-3 0  9991,2 52483  53.2147 231.4779 0001343  77.7200 282.3942 15.08841435 49038,6917.876,95.437,540.67,538.812,0.0
52483.0,STARLINK-3875,PAYLOAD,2023-03-22 16:36:52,15.08847716,0.0001208,53.2162,230.884,90.4645,269.6485,5.811e-05,6.37e-06,0.0,0 STARLINK-3875,1 52483U 22049AJ  23081.69226999  .00000637  00000-0  58110-4 0  9990,2 52483  53.2162 230.8840 0001208  90.4645 269.6485 15.08847716 50133,6917.857,95.437,540.557,538.886,0.0
52483.0,STARLINK-3875,PAYLOAD,2023-03-23 13:16:53,15.0883793,0.000132,53.218,227.02,96.7128,263.4014,8.1924e-05,1.016e-05,0.0,0 STARLINK-3875,1 52483U 22049AJ  23082.55339685  .00001016  00000-0  81924-4 0  9994,2 52483  53.2180 227.0200 0001320  96.7128 263.4014 15.08837930 50262,6917.887,95.438,540.665,538.839,0.0
52483.0,STARLINK-3875,PAYLOAD,2023-03-23 16:27:39,15.0884313,0.0001231,53.2178,226.4276,84.2523,275.8609,0.0001591,2.245e-05,0.0,0 STARLINK-3875,1 52483U 22049AJ  23082.68587494  .00002245  00000-0  15910-3 0  9997,2 52483  53.2178 226.4276 0001231  84.2523 275.8609 15.08843130 49205,6917.871,95.437,540.587,538.884,0.0
52483.0,STARLINK-3875,PAYLOAD,2023-03-24 08:21:29,15.08870554,0.0001113,53.2163,223.4478,80.8172,279.2946,0.00050261,7.727e-05,0.0,0 STARLINK-3875,1 52483U 22049AJ  23083.34825957  .00007727  00000-0  50261-3 0  9998,2 52483  53.2163 223.4478 0001113  80.8172 279.2946 15.08870554 49304,6917.787,95.436,540.422,538.882,0.0
52483.0,STARLINK-3875,PAYLOAD,2023-03-24 13:07:39,15.08843295,0.0001425,53.2175,222.5579,56.2004,303.9123,5.1382e-05,5.3e-06,0.0,0 STARLINK-3875,1 52483U 22049AJ  23083.54699002  .00000530  00000-0  51382-4 0  9991,2 52483  53.2175 222.5579 0001425  56.2004 303.9123 15.08843295 50414,6917.87,95.437,540.721,538.75,0.0
52483.0,STARLINK-3875,PAYLOAD,2023-03-24 16:18:25,15.08848437,0.0001406,53.2172,221.9631,94.6472,265.4681,0.0001318,1.811e-05,0.0,0 STARLINK-3875,1 52483U 22049AJ  23083.67946663  .00001811  00000-0  13180-3 0  9999,2 52483  53.2172 221.9631 0001406  94.6472 265.4681 15.08848437 49352,6917.855,95.437,540.692,538.747,0.0
52483.0,STARLINK-3875,PAYLOAD,2023-03-25 12:58:28,15.08802434,0.0001666,53.2189,218.0989,91.4286,268.6897,-0.00060477,-9.89e-05,0.0,0 STARLINK-3875,1 52483U 22049AJ  23084.54061132 -.00009890  00000-0 -60477-3 0  9993,2 52483  53.2189 218.0989 0001666  91.4286 268.6897 15.08802434 49484,6917.995,95.44,541.013,538.708,0.0
52483.0,STARLINK-3875,PAYLOAD,2023-03-25 16:09:15,15.08808194,0.0001449,53.2176,217.5024,78.9561,281.1594,-0.00043806,-7.247e-05,0.0,0 STARLINK-3875,1 52483U 22049AJ  23084.67309185 -.00007247  00000-0 -43806-3 0  9991,2 52483  53.2176 217.5024 0001449  78.9561 281.1594 15.08808194 50585,6917.978,95.44,540.845,538.84,0.0
52483.0,STARLINK-3875,PAYLOAD,2023-03-26 01:41:34,15.08821703,0.0001363,53.2168,215.7175,73.5329,286.5813,-6.5565e-05,-1.331e-05,0.0,0 STARLINK-3875,1 52483U 22049AJ  23085.07053289 -.00001331  00000-0 -65565-4 0  9992,2 52483  53.2168 215.7175 0001363  73.5329 286.5813 15.08821703 49561,6917.936,95.439,540.744,538.858,0.0
52483.0,STARLINK-3875,PAYLOAD,2023-03-26 12:49:16,15.08839797,0.0001788,53.2186,213.6371,78.6799,281.4394,0.00073324,0.00011401,0.0,0 STARLINK-3875,1 52483U 22049AJ  23085.53421454  .00011401  00000-0  73324-3 0  9994,2 52483  53.2186 213.6371 0001788  78.6799 281.4394 15.08839797 49632,6917.881,95.438,540.983,538.509,0.0
52483.0,STARLINK-3875,PAYLOAD,2023-03-26 16:00:01,15.08852708,0.0001312,53.2165,213.0424,75.8711,284.2427,0.0008461,0.00013208,0.0,0 STARLINK-3875,1 52483U 22049AJ  23085.66668936  .00013208  00000-0  84610-3 0  9993,2 52483  53.2165 213.0424 0001312  75.8711 284.2427 15.08852708 49655,6917.842,95.437,540.614,538.799,0.0
52483.0,STARLINK-3875,PAYLOAD,2023-03-27 12:40:02,15.08856617,0.0001636,53.2186,209.1783,76.946,283.1715,0.00040491,6.165e-05,0.0,0 STARLINK-3875,1 52483U 22049AJ  23086.52780960  .00006165  00000-0  40491-3 0  9994,2 52483  53.2186 209.1783 0001636  76.9460 283.1715 15.08856617 49789,6917.83,95.437,540.826,538.563,0.0
52483.0,STARLINK-3875,PAYLOAD,2023-03-27 15:50:48,15.08863453,0.0001801,53.2177,208.5825,71.8658,288.253,0.00043284,6.612e-05,0.0,0 STARLINK-3875,1 52483U 22049AJ  23086.66028691  .00006612  00000-0  43284-3 0  9995,2 52483  53.2177 208.5825 0001801  71.8658 288.2530 15.08863453 50886,6917.809,95.436,540.92,538.428,0.0
52483.0,STARLINK-3875,PAYLOAD,2023-03-28 06:09:17,15.08847407,0.0001947,53.2172,205.9073,99.3176,260.8037,0.00022074,3.227e-05,0.0,0 STARLINK-3875,1 52483U 22049AJ  23087.25644827  .00003227  00000-0  22074-3 0  9999,2 52483  53.2172 205.9073 0001947  99.3176 260.8037 15.08847407 49896,6917.858,95.437,541.07,538.376,0.0
52483.0,STARLINK-3875,PAYLOAD,2023-03-28 14:06:12,15.08856283,0.0001538,53.2164,204.4204,81.1794,278.9372,0.0010291,0.00016135,0.0,0 STARLINK-3875,1 52483U 22049AJ  23087.58764415  .00016135  00000-0  10291-2 0  9990,2 52483  53.2164 204.4204 0001538  81.1794 278.9372 15.08856283 51020,6917.831,95.437,540.76,538.632,0.0
52483.0,STARLINK-3875,PAYLOAD,2023-03-29 07:35:26,15.08849981,0.0001672,53.2169,201.1489,94.0728,266.0455,0.00057446,8.869e-05,0.0,0 STARLINK-3875,1 52483U 22049AJ  23088.31628229  .00008869  00000-0  57446-3 0  9993,2 52483  53.2169 201.1489 0001672  94.0728 266.0455 15.08849981 50052,6917.85,95.437,540.872,538.558,0.0
52483.0,STARLINK-3875,PAYLOAD,2023-03-29 12:21:36,15.08855617,0.0001826,53.2164,200.2546,113.0155,247.103,0.0007037,0.00010934,0.0,0 STARLINK-3875,1 52483U 22049AJ  23088.51500012  .00010934  00000-0  70370-3 0  9991,2 52483  53.2164 200.2546 0001826 113.0155 247.1030 15.08855617 51163,6917.833,95.437,540.961,538.434,0.0
52483.0,STARLINK-3875,PAYLOAD,2023-03-29 18:43:07,15.08870596,0.0001618,53.216,199.063,117.1477,242.968,0.0010096,0.0001583,0.0,0 STARLINK-3875,1 52483U 22049AJ  23088.77995321  .00015830  00000-0  10096-2 0  9998,2 52483  53.2160 199.0630 0001618 117.1477 242.9680 15.08870596 51201,6917.787,95.436,540.771,538.533,0.0
52483.0,STARLINK-3875,PAYLOAD,2023-03-30 13:47:46,15.08859654,0.000112,53.2161,195.5005,102.0001,258.1117,0.0011039,0.00017334,0.0,0 STARLINK-3875,1 52483U 22049AJ  23089.57483824  .00017334  00000-0  11039-2 0  9996,2 52483  53.2161 195.5005 0001120 102.0001 258.1117 15.08859654 50242,6917.82,95.436,540.46,538.911,0.0
52483.0,STARLINK-3875,PAYLOAD,2023-03-31 05:41:37,15.08860967,0.0001196,53.2159,192.5246,81.3546,278.7582,0.0027118,0.0004316,0.0,0 STARLINK-3875,1 52483U 22049AJ  23090.23724444  .00043160  00000-0  27118-2 0  9998,2 52483  53.2159 192.5246 0001196  81.3546 278.7582 15.08860967 50343,6917.816,95.436,540.509,538.854,0.0
52483.0,STARLINK-3875,PAYLOAD,2023-03-31 13:38:33,15.08857019,0.0001016,53.2172,191.0383,94.4986,265.6123,0.0012417,0.00019538,0.0,0 STARLINK-3875,1 52483U 22049AJ  23090.56844065  .00019538  00000-0  12417-2 0  9994,2 52483  53.2172 191.0383 0001016  94.4986 265.6123 15.08857019 50393,6917.828,95.436,540.396,538.991,0.0
52483.0,STARLINK-3875,PAYLOAD,2023-04-01 07:07:48,15.08822823,0.0001065,53.2173,187.7678,115.554,244.5562,0.0010086,0.00015793,0.0,0 STARLINK-3875,1 52483U 22049AJ  23091.29708838  .00015793  00000-0  10086-2 0  9991,2 52483  53.2173 187.7678 0001065 115.5540 244.5562 15.08822823 50509,6917.933,95.439,540.535,539.061,0.0
52483.0,STARLINK-3875,PAYLOAD,2023-04-01 11:53:58,15.08815741,8.74e-05,53.2169,186.875,101.2507,258.8584,0.0010969,0.00017201,0.0,0 STARLINK-3875,1 52483U 22049AJ  23091.49581204  .00017201  00000-0  10969-2 0  9995,2 52483  53.2169 186.8750 0000874 101.2507 258.8584 15.08815741 51613,6917.955,95.439,540.424,539.215,0.0
52483.0,STARLINK-3875,PAYLOAD,2023-04-01 16:40:07,15.08823026,0.0001012,53.217,185.9829,100.7006,259.41,0.0016678,0.00026342,0.0,0 STARLINK-3875,1 52483U 22049AJ  23091.69453588  .00026342  00000-0  16678-2 0  9999,2 52483  53.2170 185.9829 0001012 100.7006 259.4100 15.08823026 51644,6917.932,95.439,540.497,539.097,0.0
52483.0,STARLINK-3875,PAYLOAD,2023-04-02 13:20:07,15.08886703,8.76e-05,53.2162,182.1173,79.3354,280.7737,0.0021902,0.00034786,0.0,0 STARLINK-3875,1 52483U 22049AJ  23092.55564536  .00034786  00000-0  21902-2 0  9998,2 52483  53.2162 182.1173 0000876  79.3354 280.7737 15.08886703 51778,6917.738,95.435,540.209,538.997,0.0
52483.0,STARLINK-3875,PAYLOAD,2023-04-02 14:55:30,15.08892734,9.05e-05,53.2162,181.8199,79.4697,280.6397,0.0022643,0.00035985,0.0,0 STARLINK-3875,1 52483U 22049AJ  23092.62188298  .00035985  00000-0  22643-2 0  9998,2 52483  53.2162 181.8199 0000905  79.4697 280.6397 15.08892734 50700,6917.719,95.434,540.21,538.958,0.0
52483.0,STARLINK-3875,PAYLOAD,2023-04-02 16:30:53,15.0889542,9.85e-05,53.2168,181.5226,82.3897,277.7207,0.0020698,0.00032857,0.0,0 STARLINK-3875,1 52483U 22049AJ  23092.68812075  .00032857  00000-0  20698-2 0  9994,2 52483  53.2168 181.5226 0000985  82.3897 277.7207 15.08895420 51799,6917.711,95.434,540.257,538.895,0.0
52483.0,STARLINK-3875,PAYLOAD,2023-04-03 05:13:58,15.08865007,9.41e-05,53.2159,179.1453,95.9475,264.1625,0.00040869,6.227e-05,0.0,0 STARLINK-3875,1 52483U 22049AJ  23093.21803632  .00006227  00000-0  40869-3 0  9998,2 52483  53.2159 179.1453 0000941  95.9475 264.1625 15.08865007 50799,6917.804,95.436,540.32,539.018,0.0
52483.0,STARLINK-3875,PAYLOAD,2023-04-03 11:35:30,15.08860532,9.07e-05,53.2169,177.9548,96.2721,263.8375,0.00018593,2.674e-05,0.0,0 STARLINK-3875,1 52483U 22049AJ  23093.48299527  .00002674  00000-0  18593-3 0  9990,2 52483  53.2169 177.9548 0000907  96.2721 263.8375 15.08860532 51912,6917.818,95.436,540.31,539.055,0.0
